O3B FM10                
1 40348U 14083A   26086.40408949 -.00000028  00000+0  00000+0 0  9994
2 40348   0.0455 334.8109 0002686  31.2091 353.9787  5.00115499205802
O3B FM11                
1 40349U 14083B   26086.41678984 -.00000028  00000+0  00000+0 0  9994
2 40349   0.0578   0.2533 0003039 353.3632   6.3752  5.00115538205823
O3B FM12                
1 40350U 14083C   26087.44332126 -.00000029  00000+0  00000+0 0  9996
2 40350   0.0570 359.6526 0002595   2.2595 358.0842  5.00115911205882
O3B FM9                 
1 40351U 14083D   26087.07037111 -.00000029  00000+0  00000+0 0  9992
2 40351   0.0590   0.2729 0002712   5.1843 354.5411  5.00115876206006
ASTRA 2G                
1 40364U 14089A   26087.55034006  .00000000  00000+0  00000+0 0  9993
2 40364   0.0218   7.3120 0004701  28.5242  16.4494  1.00268982 41153
SES-9                   
1 41380U 16013A   26087.54628134 -.00000365  00000+0  00000+0 0  9996
2 41380   0.0180 241.3093 0001737 159.2249  90.3684  1.00271147 36630
SES-10                  
1 42432U 17017A   26087.46021243 -.00000292  00000+0  00000+0 0  9998
2 42432   0.0356  45.5821 0002444 328.2768 270.7812  1.00270413 32949
SES-15                  
1 42709U 17026A   26087.51642039  .00000040  00000+0  00000+0 0  9993
2 42709   0.0364 334.5961 0000675  14.3583 253.7191  1.00270166  6625
SES-11 (ECHOSTAR 105)   
1 42967U 17063A   26087.52399328 -.00000109  00000+0  00000+0 0  9998
2 42967   0.0441  24.6275 0002548 350.3787 254.6127  1.00271604 30918
SES-14                  
1 43175U 18012B   26087.32145314 -.00000298  00000+0  00000+0 0  9996
2 43175   0.0329  45.6423 0000906 305.1287 263.1805  1.00272419  6211
O3B FM15                
1 43231U 18024A   26087.53692471 -.00000029  00000+0  00000+0 0  9998
2 43231   0.0500   2.8181 0002658   0.9720 356.2073  5.00115676146984
O3B FM16                
1 43232U 18024B   26087.18950767 -.00000029  00000+0  00000+0 0  9995
2 43232   0.0466   5.8364 0002710 356.8955 357.2649  5.00115912146897
O3B FM14                
1 43233U 18024C   26087.43016357 -.00000029  00000+0  00000+0 0  9992
2 43233   0.0452   5.1630 0002863   0.7325 354.1033  5.00115664146917
O3B FM13                
1 43234U 18024D   26084.69755415 -.00000024  00000+0  00000+0 0  9998
2 43234   0.0470 335.8508 0003967 348.6026  35.5167  5.00115556146887
SES-12                  
1 43488U 18049A   26087.61461311 -.00000289  00000+0  00000+0 0  9993
2 43488   0.0417  31.1844 0002070 272.2941 198.7969  1.00271798 28619
O3B FM20                
1 44112U 19020A   26087.45619316 -.00000029  00000+0  00000+0 0  9992
2 44112   0.0528   0.7315 0002701 354.7531   4.5083  5.00115476127529
O3B FM19                
1 44113U 19020B   26084.68483059 -.00000024  00000+0  00000+0 0  9993
2 44113   0.0581 353.0453 0004096   6.4054   0.5453  5.00116069127263
