[{"OBJECT_NAME":"O3B FM10","OBJECT_ID":"2014-083A","EPOCH":"2026-03-27T09:41:53.331936","MEAN_MOTION":5.00115499,"ECCENTRICITY":0.0002686,"INCLINATION":0.0455,"RA_OF_ASC_NODE":334.8109,"ARG_OF_PERICENTER":31.2091,"MEAN_ANOMALY":353.9787,"EPHEMERIS_TYPE":0,"CLASSIFICATION_TYPE":"U","NORAD_CAT_ID":40348,"ELEMENT_SET_NO":999,"REV_AT_EPOCH":20580,"BSTAR":0,"MEAN_MOTION_DOT":-2.8e-7,"MEAN_MOTION_DDOT":0},{"OBJECT_NAME":"O3B FM11","OBJECT_ID":"2014-083B","EPOCH":"2026-03-27T10:00:10.642176","MEAN_MOTION":5.00115538,"ECCENTRICITY":0.0003039,"INCLINATION":0.0578,"RA_OF_ASC_NODE":0.2533,"ARG_OF_PERICENTER":353.3632,"MEAN_ANOMALY":6.3752,"EPHEMERIS_TYPE":0,"CLASSIFICATION_TYPE":"U","NORAD_CAT_ID":40349,"ELEMENT_SET_NO":999,"REV_AT_EPOCH":20582,"BSTAR":0,"MEAN_MOTION_DOT":-2.8e-7,"MEAN_MOTION_DDOT":0},{"OBJECT_NAME":"O3B FM12","OBJECT_ID":"2014-083C","EPOCH":"2026-03-28T10:38:22.956864","MEAN_MOTION":5.00115911,"ECCENTRICITY":0.0002595,"INCLINATION":0.057,"RA_OF_ASC_NODE":359.6526,"ARG_OF_PERICENTER":2.2595,"MEAN_ANOMALY":358.0842,"EPHEMERIS_TYPE":0,"CLASSIFICATION_TYPE":"U","NORAD_CAT_ID":40350,"ELEMENT_SET_NO":999,"REV_AT_EPOCH":20588,"BSTAR":0,"MEAN_MOTION_DOT":-2.9e-7,"MEAN_MOTION_DDOT":0},{"OBJECT_NAME":"O3B FM9","OBJECT_ID":"2014-083D","EPOCH":"2026-03-28T01:41:20.063904","MEAN_MOTION":5.00115876,"ECCENTRICITY":0.00027123,"INCLINATION":0.059,"RA_OF_ASC_NODE":0.2729,"ARG_OF_PERICENTER":5.1843,"MEAN_ANOMALY":354.5411,"EPHEMERIS_TYPE":0,"CLASSIFICATION_TYPE":"U","NORAD_CAT_ID":40351,"ELEMENT_SET_NO":999,"REV_AT_EPOCH":20600,"BSTAR":0,"MEAN_MOTION_DOT":-2.9e-7,"MEAN_MOTION_DDOT":0},{"OBJECT_NAME":"ASTRA 2G","OBJECT_ID":"2014-089A","EPOCH":"2026-03-28T13:12:29.381184","MEAN_MOTION":1.00268982,"ECCENTRICITY":0.00047016,"INCLINATION":0.0218,"RA_OF_ASC_NODE":7.312,"ARG_OF_PERICENTER":28.5242,"MEAN_ANOMALY":16.4494,"EPHEMERIS_TYPE":0,"CLASSIFICATION_TYPE":"U","NORAD_CAT_ID":40364,"ELEMENT_SET_NO":999,"REV_AT_EPOCH":4115,"BSTAR":0,"MEAN_MOTION_DOT":0,"MEAN_MOTION_DDOT":0},{"OBJECT_NAME":"SES-9","OBJECT_ID":"2016-013A","EPOCH":"2026-03-28T13:06:38.707776","MEAN_MOTION":1.00271147,"ECCENTRICITY":0.00017374,"INCLINATION":0.018,"RA_OF_ASC_NODE":241.3093,"ARG_OF_PERICENTER":159.2249,"MEAN_ANOMALY":90.3684,"EPHEMERIS_TYPE":0,"CLASSIFICATION_TYPE":"U","NORAD_CAT_ID":41380,"ELEMENT_SET_NO":999,"REV_AT_EPOCH":3663,"BSTAR":0,"MEAN_MOTION_DOT":-3.65e-6,"MEAN_MOTION_DDOT":0},{"OBJECT_NAME":"SES-10","OBJECT_ID":"2017-017A","EPOCH":"2026-03-28T11:02:42.353952","MEAN_MOTION":1.00270413,"ECCENTRICITY":0.0002444,"INCLINATION":0.0356,"RA_OF_ASC_NODE":45.5821,"ARG_OF_PERICENTER":328.2768,"MEAN_ANOMALY":270.7812,"EPHEMERIS_TYPE":0,"CLASSIFICATION_TYPE":"U","NORAD_CAT_ID":42432,"ELEMENT_SET_NO":999,"REV_AT_EPOCH":3294,"BSTAR":0,"MEAN_MOTION_DOT":-2.92e-6,"MEAN_MOTION_DDOT":0},{"OBJECT_NAME":"SES-15","OBJECT_ID":"2017-026A","EPOCH":"2026-03-28T12:23:38.721696","MEAN_MOTION":1.00270166,"ECCENTRICITY":6.75e-5,"INCLINATION":0.0364,"RA_OF_ASC_NODE":334.5961,"ARG_OF_PERICENTER":14.3583,"MEAN_ANOMALY":253.7191,"EPHEMERIS_TYPE":0,"CLASSIFICATION_TYPE":"U","NORAD_CAT_ID":42709,"ELEMENT_SET_NO":999,"REV_AT_EPOCH":662,"BSTAR":0,"MEAN_MOTION_DOT":4.0e-7,"MEAN_MOTION_DDOT":0},{"OBJECT_NAME":"SES-11 (ECHOSTAR 105)","OBJECT_ID":"2017-063A","EPOCH":"2026-03-28T12:34:33.019392","MEAN_MOTION":1.00271604,"ECCENTRICITY":0.00025485,"INCLINATION":0.0441,"RA_OF_ASC_NODE":24.6275,"ARG_OF_PERICENTER":350.3787,"MEAN_ANOMALY":254.6127,"EPHEMERIS_TYPE":0,"CLASSIFICATION_TYPE":"U","NORAD_CAT_ID":42967,"ELEMENT_SET_NO":999,"REV_AT_EPOCH":3091,"BSTAR":0,"MEAN_MOTION_DOT":-1.09e-6,"MEAN_MOTION_DDOT":0},{"OBJECT_NAME":"SES-14","OBJECT_ID":"2018-012B","EPOCH":"2026-03-28T07:42:53.551296","MEAN_MOTION":1.00272419,"ECCENTRICITY":9.068e-5,"INCLINATION":0.0329,"RA_OF_ASC_NODE":45.6423,"ARG_OF_PERICENTER":305.1287,"MEAN_ANOMALY":263.1805,"EPHEMERIS_TYPE":0,"CLASSIFICATION_TYPE":"U","NORAD_CAT_ID":43175,"ELEMENT_SET_NO":999,"REV_AT_EPOCH":621,"BSTAR":0,"MEAN_MOTION_DOT":-2.98e-6,"MEAN_MOTION_DDOT":0},{"OBJECT_NAME":"O3B FM15","OBJECT_ID":"2018-024A","EPOCH":"2026-03-28T12:53:10.294944","MEAN_MOTION":5.00115676,"ECCENTRICITY":0.00026589,"INCLINATION":0.05,"RA_OF_ASC_NODE":2.8181,"ARG_OF_PERICENTER":0.972,"MEAN_ANOMALY":356.2073,"EPHEMERIS_TYPE":0,"CLASSIFICATION_TYPE":"U","NORAD_CAT_ID":43231,"ELEMENT_SET_NO":999,"REV_AT_EPOCH":14698,"BSTAR":0,"MEAN_MOTION_DOT":-2.9e-7,"MEAN_MOTION_DDOT":0},{"OBJECT_NAME":"O3B FM16","OBJECT_ID":"2018-024B","EPOCH":"2026-03-28T04:32:53.462688","MEAN_MOTION":5.00115912,"ECCENTRICITY":0.00027106,"INCLINATION":0.0466,"RA_OF_ASC_NODE":5.8364,"ARG_OF_PERICENTER":356.8955,"MEAN_ANOMALY":357.2649,"EPHEMERIS_TYPE":0,"CLASSIFICATION_TYPE":"U","NORAD_CAT_ID":43232,"ELEMENT_SET_NO":999,"REV_AT_EPOCH":14689,"BSTAR":0,"MEAN_MOTION_DOT":-2.9e-7,"MEAN_MOTION_DDOT":0},{"OBJECT_NAME":"O3B FM14","OBJECT_ID":"2018-024C","EPOCH":"2026-03-28T10:19:26.132448","MEAN_MOTION":5.00115664,"ECCENTRICITY":0.0002863,"INCLINATION":0.0452,"RA_OF_ASC_NODE":5.163,"ARG_OF_PERICENTER":0.7325,"MEAN_ANOMALY":354.1033,"EPHEMERIS_TYPE":0,"CLASSIFICATION_TYPE":"U","NORAD_CAT_ID":43233,"ELEMENT_SET_NO":999,"REV_AT_EPOCH":14691,"BSTAR":0,"MEAN_MOTION_DOT":-2.9e-7,"MEAN_MOTION_DDOT":0},{"OBJECT_NAME":"O3B FM13","OBJECT_ID":"2018-024D","EPOCH":"2026-03-25T16:44:28.678560","MEAN_MOTION":5.00115556,"ECCENTRICITY":0.00039678,"INCLINATION":0.047,"RA_OF_ASC_NODE":335.8508,"ARG_OF_PERICENTER":348.6026,"MEAN_ANOMALY":35.5167,"EPHEMERIS_TYPE":0,"CLASSIFICATION_TYPE":"U","NORAD_CAT_ID":43234,"ELEMENT_SET_NO":999,"REV_AT_EPOCH":14688,"BSTAR":0,"MEAN_MOTION_DOT":-2.4e-7,"MEAN_MOTION_DDOT":0},{"OBJECT_NAME":"SES-12","OBJECT_ID":"2018-049A","EPOCH":"2026-03-28T14:45:02.572704","MEAN_MOTION":1.00271798,"ECCENTRICITY":0.00020705,"INCLINATION":0.0417,"RA_OF_ASC_NODE":31.1844,"ARG_OF_PERICENTER":272.2941,"MEAN_ANOMALY":198.7969,"EPHEMERIS_TYPE":0,"CLASSIFICATION_TYPE":"U","NORAD_CAT_ID":43488,"ELEMENT_SET_NO":999,"REV_AT_EPOCH":2861,"BSTAR":0,"MEAN_MOTION_DOT":-2.89e-6,"MEAN_MOTION_DDOT":0},{"OBJECT_NAME":"O3B FM20","OBJECT_ID":"2019-020A","EPOCH":"2026-03-28T10:56:55.089024","MEAN_MOTION":5.00115476,"ECCENTRICITY":0.0002701,"INCLINATION":0.0528,"RA_OF_ASC_NODE":0.7315,"ARG_OF_PERICENTER":354.7531,"MEAN_ANOMALY":4.5083,"EPHEMERIS_TYPE":0,"CLASSIFICATION_TYPE":"U","NORAD_CAT_ID":44112,"ELEMENT_SET_NO":999,"REV_AT_EPOCH":12752,"BSTAR":0,"MEAN_MOTION_DOT":-2.9e-7,"MEAN_MOTION_DDOT":0},{"OBJECT_NAME":"O3B FM19","OBJECT_ID":"2019-020B","EPOCH":"2026-03-25T16:26:09.362976","MEAN_MOTION":5.00116069,"ECCENTRICITY":0.00040966,"INCLINATION":0.0581,"RA_OF_ASC_NODE":353.0453,"ARG_OF_PERICENTER":6.4054,"MEAN_ANOMALY":0.5453,"EPHEMERIS_TYPE":0,"CLASSIFICATION_TYPE":"U","NORAD_CAT_ID":44113,"ELEMENT_SET_NO":999,"REV_AT_EPOCH":12726,"BSTAR":0,"MEAN_MOTION_DOT":-2.4e-7,"MEAN_MOTION_DDOT":0}]
